CALSPHERE 1             
1 00900U 64063C   23117.10566598  .00000974  00000+0  10209-2 0  9995
2 00900  90.1904  46.8403 0026708 152.4115 220.6275 13.74269477913738
CALSPHERE 2             
1 00902U 64063E   23116.35508806  .00000101  00000+0  13933-3 0  9991
2 00902  90.2055  50.1262 0017254 325.2043 162.7634 13.52747464701075
LCS 1                   
1 01361U 65034C   23116.75704131  .00000003  00000+0 -72954-3 0  9993
2 01361  32.1461  21.4043 0009053 271.5848  88.3612  9.89302710 96255
TEMPSAT 1               
1 01512U 65065E   23116.76100668  .00000061  00000+0  10442-3 0  9998
2 01512  89.9353 216.3189 0068551 229.5926 284.3873 13.33476136807128
CALSPHERE 4A            
1 01520U 65065H   23117.03165237  .00000138  00000+0  24631-3 0  9991
2 01520  89.9686 129.6782 0071301  99.2180 346.3806 13.35957876809935
OPS 5712 (P/L 160)      
1 02826U 67053A   23116.85980142  .00005345  00000+0  12966-2 0  9991
2 02826  69.9268 272.6461 0007346 259.9058 100.1249 14.53406143898212
SURCAL 150B             
1 02909U 67053J   23116.83413530  .00009417  00000+0  16170-2 0  9998
2 02909  69.9451 245.9652 0005328 275.2052  84.8483 14.68919170909537
COSMOS 2493 (SKRL-756 1)
1 39490U 13078A   23117.20056166  .00003224  00000+0  32262-3 0  9992
2 39490  82.4149 293.2141 0017426 131.8049 228.4662 14.91039358506748
COSMOS 2494 (SKRL-756 2)
1 39491U 13078B   23117.19677200  .00003759  00000+0  36114-3 0  9992
2 39491  82.4148 286.2885 0022015 107.3368 253.0263 14.92621110507103
