[{"OBJECT_NAME":"CALSPHERE 1","OBJECT_ID":"1964-063C","EPOCH":"2023-04-27T02:32:09.540672","MEAN_MOTION":13.74269477,"ECCENTRICITY":0.0026708,"INCLINATION":90.1904,"RA_OF_ASC_NODE":46.8403,"ARG_OF_PERICENTER":152.4115,"MEAN_ANOMALY":220.6275,"EPHEMERIS_TYPE":0,"CLASSIFICATION_TYPE":"U","NORAD_CAT_ID":900,"ELEMENT_SET_NO":999,"REV_AT_EPOCH":91373,"BSTAR":0.0010209,"MEAN_MOTION_DOT":9.74e-6,"MEAN_MOTION_DDOT":0},{"OBJECT_NAME":"CALSPHERE 2","OBJECT_ID":"1964-063E","EPOCH":"2023-04-26T08:31:19.608384","MEAN_MOTION":13.52747464,"ECCENTRICITY":0.0017254,"INCLINATION":90.2055,"RA_OF_ASC_NODE":50.1262,"ARG_OF_PERICENTER":325.2043,"MEAN_ANOMALY":162.7634,"EPHEMERIS_TYPE":0,"CLASSIFICATION_TYPE":"U","NORAD_CAT_ID":902,"ELEMENT_SET_NO":999,"REV_AT_EPOCH":70107,"BSTAR":0.00013933,"MEAN_MOTION_DOT":1.01e-6,"MEAN_MOTION_DDOT":0},{"OBJECT_NAME":"LCS 1","OBJECT_ID":"1965-034C","EPOCH":"2023-04-26T18:10:08.369184","MEAN_MOTION":9.8930271,"ECCENTRICITY":0.0009053,"INCLINATION":32.1461,"RA_OF_ASC_NODE":21.4043,"ARG_OF_PERICENTER":271.5848,"MEAN_ANOMALY":88.3612,"EPHEMERIS_TYPE":0,"CLASSIFICATION_TYPE":"U","NORAD_CAT_ID":1361,"ELEMENT_SET_NO":999,"REV_AT_EPOCH":9625,"BSTAR":-0.00072954,"MEAN_MOTION_DOT":3.0e-8,"MEAN_MOTION_DDOT":0},{"OBJECT_NAME":"TEMPSAT 1","OBJECT_ID":"1965-065E","EPOCH":"2023-04-26T18:15:50.977152","MEAN_MOTION":13.33476136,"ECCENTRICITY":0.0068551,"INCLINATION":89.9353,"RA_OF_ASC_NODE":216.3189,"ARG_OF_PERICENTER":229.5926,"MEAN_ANOMALY":284.3873,"EPHEMERIS_TYPE":0,"CLASSIFICATION_TYPE":"U","NORAD_CAT_ID":1512,"ELEMENT_SET_NO":999,"REV_AT_EPOCH":80712,"BSTAR":0.00010442,"MEAN_MOTION_DOT":6.1e-7,"MEAN_MOTION_DDOT":0},{"OBJECT_NAME":"CALSPHERE 4A","OBJECT_ID":"1965-065H","EPOCH":"2023-04-27T00:45:34.764768","MEAN_MOTION":13.35957876,"ECCENTRICITY":0.0071301,"INCLINATION":89.9686,"RA_OF_ASC_NODE":129.6782,"ARG_OF_PERICENTER":99.218,"MEAN_ANOMALY":346.3806,"EPHEMERIS_TYPE":0,"CLASSIFICATION_TYPE":"U","NORAD_CAT_ID":1520,"ELEMENT_SET_NO":999,"REV_AT_EPOCH":80993,"BSTAR":0.00024631,"MEAN_MOTION_DOT":1.38e-6,"MEAN_MOTION_DDOT":0},{"OBJECT_NAME":"OPS 5712 (P\/L 160)","OBJECT_ID":"1967-053A","EPOCH":"2023-04-26T20:38:06.842688","MEAN_MOTION":14.53406143,"ECCENTRICITY":0.0007346,"INCLINATION":69.9268,"RA_OF_ASC_NODE":272.6461,"ARG_OF_PERICENTER":259.9058,"MEAN_ANOMALY":100.1249,"EPHEMERIS_TYPE":0,"CLASSIFICATION_TYPE":"U","NORAD_CAT_ID":2826,"ELEMENT_SET_NO":999,"REV_AT_EPOCH":89821,"BSTAR":0.0012966,"MEAN_MOTION_DOT":5.345e-5,"MEAN_MOTION_DDOT":0},{"OBJECT_NAME":"SURCAL 150B","OBJECT_ID":"1967-053J","EPOCH":"2023-04-26T20:01:09.289920","MEAN_MOTION":14.6891917,"ECCENTRICITY":0.0005328,"INCLINATION":69.9451,"RA_OF_ASC_NODE":245.9652,"ARG_OF_PERICENTER":275.2052,"MEAN_ANOMALY":84.8483,"EPHEMERIS_TYPE":0,"CLASSIFICATION_TYPE":"U","NORAD_CAT_ID":2909,"ELEMENT_SET_NO":999,"REV_AT_EPOCH":90953,"BSTAR":0.001617,"MEAN_MOTION_DOT":9.417e-5,"MEAN_MOTION_DDOT":0},{"OBJECT_NAME":"COSMOS 2493 (SKRL-756 1)","OBJECT_ID":"2013-078A","EPOCH":"2023-04-27T04:48:48.527424","MEAN_MOTION":14.91039358,"ECCENTRICITY":0.0017426,"INCLINATION":82.4149,"RA_OF_ASC_NODE":293.2141,"ARG_OF_PERICENTER":131.8049,"MEAN_ANOMALY":228.4662,"EPHEMERIS_TYPE":0,"CLASSIFICATION_TYPE":"U","NORAD_CAT_ID":39490,"ELEMENT_SET_NO":999,"REV_AT_EPOCH":50674,"BSTAR":0.00032262,"MEAN_MOTION_DOT":3.224e-5,"MEAN_MOTION_DDOT":0},{"OBJECT_NAME":"COSMOS 2494 (SKRL-756 2)","OBJECT_ID":"2013-078B","EPOCH":"2023-04-27T04:43:21.100800","MEAN_MOTION":14.9262111,"ECCENTRICITY":0.0022015,"INCLINATION":82.4148,"RA_OF_ASC_NODE":286.2885,"ARG_OF_PERICENTER":107.3368,"MEAN_ANOMALY":253.0263,"EPHEMERIS_TYPE":0,"CLASSIFICATION_TYPE":"U","NORAD_CAT_ID":39491,"ELEMENT_SET_NO":999,"REV_AT_EPOCH":50710,"BSTAR":0.00036114,"MEAN_MOTION_DOT":3.759e-5,"MEAN_MOTION_DDOT":0}]
